NORAD_CAT_ID,OBJECT_NAME,OBJECT_TYPE,EPOCH,MEAN_MOTION,ECCENTRICITY,INCLINATION,RA_OF_ASC_NODE,ARG_OF_PERICENTER,MEAN_ANOMALY,BSTAR,MEAN_MOTION_DOT,MEAN_MOTION_DDOT,TLE_LINE0,TLE_LINE1,TLE_LINE2,SEMIMAJOR_AXIS,PERIOD,APOGEE,PERIGEE,DECAYED
52584.0,STARLINK-3922,PAYLOAD,2024-01-19 23:11:02,15.0883945,0.000147,53.2179,19.4423,96.2251,263.8909,0.00010658,1.409e-05,0.0,0 STARLINK-3922,1 52584U 22051BA  24019.96600556  .00001409  00000-0  10658-3 0  9994,2 52584  53.2179  19.4423 0001470  96.2251 263.8909 15.08839450 93870,6917.882,95.438,540.764,538.73,0.0
52584.0,STARLINK-3922,PAYLOAD,2024-01-20 03:57:12,15.08836484,0.0001422,53.2171,18.5465,77.9673,282.1478,5.3119e-05,5.57e-06,0.0,0 STARLINK-3922,1 52584U 22051BA  24020.16473025  .00000557  00000-0  53119-4 0  9990,2 52584  53.2171  18.5465 0001422  77.9673 282.1478 15.08836484 93979,6917.891,95.438,540.74,538.772,0.0
52584.0,STARLINK-3922,PAYLOAD,2024-01-20 05:32:35,15.08838026,0.0001462,53.2173,18.2495,70.1249,289.99,5.8479e-05,6.43e-06,0.0,0 STARLINK-3922,1 52584U 22051BA  24020.23097005  .00000643  00000-0  58479-4 0  9998,2 52584  53.2173  18.2495 0001462  70.1249 289.9900 15.08838026 93989,6917.886,95.438,540.763,538.74,0.0
52584.0,STARLINK-3922,PAYLOAD,2024-01-21 03:47:59,15.08844403,0.0001472,53.2176,14.0866,66.3579,293.7567,6.9004e-05,8.11e-06,0.0,0 STARLINK-3922,1 52584U 22051BA  24021.15832708  .00000811  00000-0  69004-4 0  9990,2 52584  53.2176  14.0866 0001472  66.3579 293.7567 15.08844403 94127,6917.867,95.437,540.75,538.714,0.0
52584.0,STARLINK-3922,PAYLOAD,2024-01-21 05:23:22,15.08845403,0.0001487,53.2175,13.7891,66.1597,293.955,7.7216e-05,9.41e-06,0.0,0 STARLINK-3922,1 52584U 22051BA  24021.22456661  .00000941  00000-0  77216-4 0  9996,2 52584  53.2175  13.7891 0001487  66.1597 293.9550 15.08845403 94062,6917.864,95.437,540.758,538.7,0.0
52584.0,STARLINK-3922,PAYLOAD,2024-01-21 08:34:08,15.08849494,0.0001447,53.2173,13.1938,102.1482,257.9672,0.00014065,1.952e-05,0.0,0 STARLINK-3922,1 52584U 22051BA  24021.35704019  .00001952  00000-0  14065-3 0  9998,2 52584  53.2173  13.1938 0001447 102.1482 257.9672 15.08849494 94155,6917.851,95.437,540.717,538.715,0.0
52584.0,STARLINK-3922,PAYLOAD,2024-01-21 22:52:37,15.08832714,0.0001343,53.2179,10.5184,82.3729,277.7415,3.0328e-05,1.95e-06,0.0,0 STARLINK-3922,1 52584U 22051BA  24021.95321489  .00000195  00000-0  30328-4 0  9999,2 52584  53.2179  10.5184 0001343  82.3729 277.7415 15.08832714 94177,6917.903,95.438,540.697,538.839,0.0
52584.0,STARLINK-3922,PAYLOAD,2024-01-22 03:38:46,15.08839188,0.0001342,53.219,9.6263,98.3438,261.7707,6.9601e-05,8.2e-06,0.0,0 STARLINK-3922,1 52584U 22051BA  24022.15192920  .00000820  00000-0  69601-4 0  9999,2 52584  53.2190   9.6263 0001342  98.3438 261.7707 15.08839188 94270,6917.883,95.438,540.676,538.819,0.0
52584.0,STARLINK-3922,PAYLOAD,2024-01-22 05:14:09,15.08841538,0.0001412,53.2178,9.328,101.68,258.4351,8.7433e-05,1.104e-05,0.0,0 STARLINK-3922,1 52584U 22051BA  24022.21816770  .00001104  00000-0  87433-4 0  9991,2 52584  53.2178   9.3280 0001412 101.6800 258.4351 15.08841538 94282,6917.876,95.437,540.717,538.764,0.0
52584.0,STARLINK-3922,PAYLOAD,2024-01-23 03:29:33,15.08843675,0.0001914,53.2178,5.1641,142.2042,217.9085,6.0264e-05,6.71e-06,0.0,0 STARLINK-3922,1 52584U 22051BA  24023.14552337  .00000671  00000-0  60264-4 0  9991,2 52584  53.2178   5.1641 0001914 142.2042 217.9085 15.08843675 94427,6917.869,95.437,541.058,538.41,0.0
52584.0,STARLINK-3922,PAYLOAD,2024-01-23 05:04:56,15.08846204,0.0001391,53.2178,4.8684,100.8023,259.3126,6.7311e-05,7.84e-06,0.0,0 STARLINK-3922,1 52584U 22051BA  24023.21176545  .00000784  00000-0  67311-4 0  9997,2 52584  53.2178   4.8684 0001391 100.8023 259.3126 15.08846204 94436,6917.861,95.437,540.689,538.764,0.0
52584.0,STARLINK-3922,PAYLOAD,2024-01-24 03:20:20,15.08843048,0.000139,53.2181,0.7054,107.7895,252.3249,6.7672e-05,7.89e-06,0.0,0 STARLINK-3922,1 52584U 22051BA  24024.13912549  .00000789  00000-0  67672-4 0  9996,2 52584  53.2181   0.7054 0001390 107.7895 252.3249 15.08843048 94575,6917.871,95.437,540.698,538.774,0.0
52584.0,STARLINK-3922,PAYLOAD,2024-01-24 04:55:44,15.0882494,0.0001528,53.2184,0.4073,106.732,253.384,0.00039883,6.063e-05,0.0,0 STARLINK-3922,1 52584U 22051BA  24024.20537069  .00006063  00000-0  39883-3 0  9997,2 52584  53.2184   0.4073 0001528 106.7320 253.3840 15.08824940 94580,6917.926,95.439,540.848,538.734,0.0
52584.0,STARLINK-3922,PAYLOAD,2024-01-25 03:11:08,15.08838808,0.0001615,53.2202,356.2458,112.2323,247.884,-3.9082e-05,-9.1e-06,0.0,0 STARLINK-3922,1 52584U 22051BA  24025.13273254 -.00000910  00000-0 -39082-4 0  9992,2 52584  53.2202 356.2458 0001615 112.2323 247.8840 15.08838808 94724,6917.884,95.438,540.866,538.632,0.0
52584.0,STARLINK-3922,PAYLOAD,2024-01-25 04:46:31,15.08839591,0.000159,53.2199,355.9474,110.1476,249.9687,-2.8664e-05,-7.44e-06,0.0,0 STARLINK-3922,1 52584U 22051BA  24025.19897198 -.00000744  00000-0 -28664-4 0  9996,2 52584  53.2199 355.9474 0001590 110.1476 249.9687 15.08839591 94734,6917.882,95.438,540.847,538.647,0.0
52584.0,STARLINK-3922,PAYLOAD,2024-01-26 03:01:55,15.08834032,0.0001355,53.2187,351.7792,107.7322,252.3818,0.00013334,1.834e-05,0.0,0 STARLINK-3922,1 52584U 22051BA  24026.12633125  .00001834  00000-0  13334-3 0  9994,2 52584  53.2187 351.7792 0001355 107.7322 252.3818 15.08834032 94873,6917.899,95.438,540.701,538.826,0.0
52584.0,STARLINK-3922,PAYLOAD,2024-01-26 04:37:18,15.08807733,0.0001583,53.2188,351.4813,106.5748,253.5418,0.00056814,8.758e-05,0.0,0 STARLINK-3922,1 52584U 22051BA  24026.19257647  .00008758  00000-0  56814-3 0  9994,2 52584  53.2188 351.4813 0001583 106.5748 253.5418 15.08807733 94885,6917.979,95.44,540.939,538.749,0.0
52584.0,STARLINK-3922,PAYLOAD,2024-01-27 02:52:42,15.08837068,0.0001331,53.2179,347.3235,98.6886,261.4257,7.5873e-05,9.2e-06,0.0,0 STARLINK-3922,1 52584U 22051BA  24027.11993544  .00000920  00000-0  75873-4 0  9990,2 52584  53.2179 347.3235 0001331  98.6886 261.4257 15.08837068 95022,6917.889,95.438,540.675,538.834,0.0
52584.0,STARLINK-3922,PAYLOAD,2024-01-27 07:38:51,15.08840793,0.0001498,53.2192,346.428,104.9336,255.1822,0.00011374,1.523e-05,0.0,0 STARLINK-3922,1 52584U 22051BA  24027.31865222  .00001523  00000-0  11374-3 0  9998,2 52584  53.2192 346.4280 0001498 104.9336 255.1822 15.08840793 95052,6917.878,95.438,540.779,538.707,0.0
52584.0,STARLINK-3922,PAYLOAD,2024-01-28 02:43:29,15.08838989,0.000154,53.2191,342.858,103.7076,256.4088,1.2865e-05,-8.3e-07,0.0,0 STARLINK-3922,1 52584U 22051BA  24028.11353775 -.00000083  00000-0  12865-4 0  9990,2 52584  53.2191 342.8580 0001540 103.7076 256.4088 15.08838989 95175,6917.883,95.438,540.814,538.683,0.0
52584.0,STARLINK-3922,PAYLOAD,2024-01-28 05:54:15,15.08839457,0.0001506,53.219,342.2628,98.576,261.5403,1.7588e-05,-8e-08,0.0,0 STARLINK-3922,1 52584U 22051BA  24028.24601793 -.00000008  00000-0  17588-4 0  9994,2 52584  53.2190 342.2628 0001506  98.5760 261.5403 15.08839457 95195,6917.882,95.438,540.789,538.705,0.0
52584.0,STARLINK-3922,PAYLOAD,2024-01-29 02:34:16,15.08835072,0.0001625,53.219,338.3968,100.6231,259.4944,0.00018783,2.702e-05,0.0,0 STARLINK-3922,1 52584U 22051BA  24029.10713587  .00002702  00000-0  18783-3 0  9994,2 52584  53.2190 338.3968 0001625 100.6231 259.4944 15.08835072 95328,6917.895,95.438,540.885,538.636,0.0
52584.0,STARLINK-3922,PAYLOAD,2024-01-29 05:45:02,15.08851845,0.0001587,53.2191,337.8047,96.1191,263.9982,0.00011151,1.488e-05,0.0,0 STARLINK-3922,1 52584U 22051BA  24029.23960803  .00001488  00000-0  11151-3 0  9995,2 52584  53.2191 337.8047 0001587  96.1191 263.9982 15.08851845 95342,6917.844,95.437,540.807,538.611,0.0
52584.0,STARLINK-3922,PAYLOAD,2024-01-30 02:25:03,15.08843572,0.0001798,53.22,333.9392,92.5488,267.571,7.8989e-05,9.69e-06,0.0,0 STARLINK-3922,1 52584U 22051BA  24030.10073453  .00000969  00000-0  78989-4 0  9995,2 52584  53.2200 333.9392 0001798  92.5488 267.5710 15.08843572 95477,6917.869,95.437,540.978,538.491,0.0
52584.0,STARLINK-3922,PAYLOAD,2024-01-30 05:35:49,15.08843601,0.000201,53.2206,333.3443,84.4416,275.6806,0.00010431,1.372e-05,0.0,0 STARLINK-3922,1 52584U 22051BA  24030.23321493  .00001372  00000-0  10431-3 0  9995,2 52584  53.2206 333.3443 0002010  84.4416 275.6806 15.08843601 95494,6917.869,95.437,541.125,538.344,0.0
52584.0,STARLINK-3922,PAYLOAD,2024-01-30 19:54:18,15.08848023,0.000205,53.2191,330.6748,109.3958,250.7256,-3.6055e-05,-8.62e-06,0.0,0 STARLINK-3922,1 52584U 22051BA  24030.82937548 -.00000862  00000-0 -36055-4 0  9990,2 52584  53.2191 330.6748 0002050 109.3958 250.7256 15.08848023 95583,6917.856,95.437,541.139,538.303,0.0
52584.0,STARLINK-3922,PAYLOAD,2024-01-31 02:15:50,15.08848175,0.0001515,53.2184,329.486,88.721,271.3956,-4.5663e-05,-1.015e-05,0.0,0 STARLINK-3922,1 52584U 22051BA  24031.09433396 -.00001015  00000-0 -45663-4 0  9998,2 52584  53.2184 329.4860 0001515  88.7210 271.3956 15.08848175 95621,6917.855,95.437,540.768,538.672,0.0
52584.0,STARLINK-3922,PAYLOAD,2024-01-31 19:45:05,15.08833484,0.0001632,53.2203,326.2187,80.0599,280.0577,4.352e-05,4.05e-06,0.0,0 STARLINK-3922,1 52584U 22051BA  24031.82298219  .00000405  00000-0  43520-4 0  9992,2 52584  53.2203 326.2187 0001632  80.0599 280.0577 15.08833484 95730,6917.9,95.438,540.894,538.636,0.0
52584.0,STARLINK-3922,PAYLOAD,2024-02-01 02:06:38,15.08836235,0.0001549,53.22,325.0272,86.3234,273.7935,-4.5234e-05,-1.008e-05,0.0,0 STARLINK-3922,1 52584U 22051BA  24032.08794396 -.00001008  00000-0 -45234-4 0  9994,2 52584  53.2200 325.0272 0001549  86.3234 273.7935 15.08836235 95779,6917.892,95.438,540.828,538.685,0.0
52584.0,STARLINK-3922,PAYLOAD,2024-02-01 19:35:52,15.08837849,0.0001398,53.2183,321.7528,94.2041,265.9111,6.2371e-05,7.05e-06,0.0,0 STARLINK-3922,1 52584U 22051BA  24032.81657981  .00000705  00000-0  62371-4 0  9995,2 52584  53.2183 321.7528 0001398  94.2041 265.9111 15.08837849 95885,6917.887,95.438,540.719,538.785,0.0
